[{"CCSDS_OMM_VERS":"2.0","COMMENT":"GENERATED VIA SPACE-TRACK.ORG API","CREATION_DATE":"2020-12-01T19:37:25","ORIGINATOR":"18 SPCS","OBJECT_NAME":"FALCON 9 DEB","OBJECT_ID":"2020-055BN","CENTER_NAME":"EARTH","REF_FRAME":"TEME","TIME_SYSTEM":"UTC","MEAN_ELEMENT_THEORY":"SGP4","EPOCH":"2020-12-01T14:32:07.554336","MEAN_MOTION":"15.60620211","ECCENTRICITY":"0.00116430","INCLINATION":"53.0088","RA_OF_ASC_NODE":"84.3898","ARG_OF_PERICENTER":"296.9209","MEAN_ANOMALY":"63.0612","EPHEMERIS_TYPE":"0","CLASSIFICATION_TYPE":"U","NORAD_CAT_ID":"46087","ELEMENT_SET_NO":"999","REV_AT_EPOCH":"2275","BSTAR":"0.00023349000000","MEAN_MOTION_DOT":"0.00019263","MEAN_MOTION_DDOT":"0.0000000000000","SEMIMAJOR_AXIS":"6764.001","PERIOD":"92.271","APOAPSIS":"393.741","PERIAPSIS":"377.991","OBJECT_TYPE":"DEBRIS","RCS_SIZE":"MEDIUM","COUNTRY_CODE":"US","LAUNCH_DATE":"2020-08-07","SITE":"AFETR","DECAY_DATE":null,"FILE":"2895669","GP_ID":"166705932","TLE_LINE0":"0 FALCON 9 DEB","TLE_LINE1":"1 46087U 20055BN  20336.60564299 +.00019263 +00000-0 +23349-3 0  9997","TLE_LINE2":"2 46087 053.0088 084.3898 0011643 296.9209 063.0612 15.60620211022751"},{"CCSDS_OMM_VERS":"2.0","COMMENT":"GENERATED VIA SPACE-TRACK.ORG API","CREATION_DATE":"2020-12-01T19:37:25","ORIGINATOR":"18 SPCS","OBJECT_NAME":"STARLINK-1538","OBJECT_ID":"2020-055AW","CENTER_NAME":"EARTH","REF_FRAME":"TEME","TIME_SYSTEM":"UTC","MEAN_ELEMENT_THEORY":"SGP4","EPOCH":"2020-12-01T14:38:15.317664","MEAN_MOTION":"15.05592859","ECCENTRICITY":"0.00016350","INCLINATION":"53.0046","RA_OF_ASC_NODE":"94.1391","ARG_OF_PERICENTER":"88.2505","MEAN_ANOMALY":"271.8670","EPHEMERIS_TYPE":"0","CLASSIFICATION_TYPE":"U","NORAD_CAT_ID":"46071","ELEMENT_SET_NO":"999","REV_AT_EPOCH":"1931","BSTAR":"0.00004005700000","MEAN_MOTION_DOT":"0.00000304","MEAN_MOTION_DDOT":"0.0000000000000","SEMIMAJOR_AXIS":"6927.823","PERIOD":"95.643","APOAPSIS":"550.821","PERIAPSIS":"548.555","OBJECT_TYPE":"PAYLOAD","RCS_SIZE":"LARGE","COUNTRY_CODE":"US","LAUNCH_DATE":"2020-08-07","SITE":"AFETR","DECAY_DATE":null,"FILE":"2895669","GP_ID":"166705008","TLE_LINE0":"0 STARLINK-1538","TLE_LINE1":"1 46071U 20055AW  20336.60989951 +.00000304 +00000-0 +40057-4 0  9998","TLE_LINE2":"2 46071 053.0046 094.1391 0001635 088.2505 271.8670 15.05592859019312"},{"CCSDS_OMM_VERS":"2.0","COMMENT":"GENERATED VIA SPACE-TRACK.ORG API","CREATION_DATE":"2020-12-01T22:36:10","ORIGINATOR":"18 SPCS","OBJECT_NAME":"STARLINK-1552","OBJECT_ID":"2020-055BB","CENTER_NAME":"EARTH","REF_FRAME":"TEME","TIME_SYSTEM":"UTC","MEAN_ELEMENT_THEORY":"SGP4","EPOCH":"2020-12-01T14:57:23.410368","MEAN_MOTION":"15.05573964","ECCENTRICITY":"0.00009860","INCLINATION":"53.0021","RA_OF_ASC_NODE":"94.0883","ARG_OF_PERICENTER":"101.4971","MEAN_ANOMALY":"258.6128","EPHEMERIS_TYPE":"0","CLASSIFICATION_TYPE":"U","NORAD_CAT_ID":"46076","ELEMENT_SET_NO":"999","REV_AT_EPOCH":"1877","BSTAR":"0.00000271750000","MEAN_MOTION_DOT":"-0.00000240","MEAN_MOTION_DDOT":"0.0000000000000","SEMIMAJOR_AXIS":"6927.881","PERIOD":"95.644","APOAPSIS":"550.429","PERIAPSIS":"549.063","OBJECT_TYPE":"PAYLOAD","RCS_SIZE":"LARGE","COUNTRY_CODE":"US","LAUNCH_DATE":"2020-08-07","SITE":"AFETR","DECAY_DATE":null,"FILE":"2895741","GP_ID":"166708974","TLE_LINE0":"0 STARLINK-1552","TLE_LINE1":"1 46076U 20055BB  20336.62318762 -.00000240  00000-0  27175-5 0  9998","TLE_LINE2":"2 46076  53.0021  94.0883 0000986 101.4971 258.6128 15.05573964 18774"},{"CCSDS_OMM_VERS":"2.0","COMMENT":"GENERATED VIA SPACE-TRACK.ORG API","CREATION_DATE":"2020-12-02T04:55:40","ORIGINATOR":"18 SPCS","OBJECT_NAME":"STARLINK-1552","OBJECT_ID":"2020-055BB","CENTER_NAME":"EARTH","REF_FRAME":"TEME","TIME_SYSTEM":"UTC","MEAN_ELEMENT_THEORY":"SGP4","EPOCH":"2020-12-01T14:57:23.410368","MEAN_MOTION":"15.05573964","ECCENTRICITY":"0.00009860","INCLINATION":"53.0021","RA_OF_ASC_NODE":"94.0883","ARG_OF_PERICENTER":"101.4971","MEAN_ANOMALY":"258.6128","EPHEMERIS_TYPE":"0","CLASSIFICATION_TYPE":"U","NORAD_CAT_ID":"46076","ELEMENT_SET_NO":"999","REV_AT_EPOCH":"1929","BSTAR":"0.00000271750000","MEAN_MOTION_DOT":"-0.00000240","MEAN_MOTION_DDOT":"0.0000000000000","SEMIMAJOR_AXIS":"6927.881","PERIOD":"95.644","APOAPSIS":"550.429","PERIAPSIS":"549.063","OBJECT_TYPE":"PAYLOAD","RCS_SIZE":"LARGE","COUNTRY_CODE":"US","LAUNCH_DATE":"2020-08-07","SITE":"AFETR","DECAY_DATE":null,"FILE":"2895815","GP_ID":"166731391","TLE_LINE0":"0 STARLINK-1552","TLE_LINE1":"1 46076U 20055BB  20336.62318762 -.00000240  00000-0  27175-5 0  9998","TLE_LINE2":"2 46076  53.0021  94.0883 0000986 101.4971 258.6128 15.05573964 19292"},{"CCSDS_OMM_VERS":"2.0","COMMENT":"GENERATED VIA SPACE-TRACK.ORG API","CREATION_DATE":"2020-12-02T04:55:40","ORIGINATOR":"18 SPCS","OBJECT_NAME":"STARLINK-1561","OBJECT_ID":"2020-055AF","CENTER_NAME":"EARTH","REF_FRAME":"TEME","TIME_SYSTEM":"UTC","MEAN_ELEMENT_THEORY":"SGP4","EPOCH":"2020-12-01T15:26:38.146848","MEAN_MOTION":"15.05582292","ECCENTRICITY":"0.00017810","INCLINATION":"53.0024","RA_OF_ASC_NODE":"113.9945","ARG_OF_PERICENTER":"98.1925","MEAN_ANOMALY":"261.9265","EPHEMERIS_TYPE":"0","CLASSIFICATION_TYPE":"U","NORAD_CAT_ID":"46056","ELEMENT_SET_NO":"999","REV_AT_EPOCH":"1904","BSTAR":"0.00011794000000","MEAN_MOTION_DOT":"0.00001439","MEAN_MOTION_DDOT":"0.0000000000000","SEMIMAJOR_AXIS":"6927.855","PERIOD":"95.644","APOAPSIS":"550.954","PERIAPSIS":"548.486","OBJECT_TYPE":"PAYLOAD","RCS_SIZE":"LARGE","COUNTRY_CODE":"US","LAUNCH_DATE":"2020-08-07","SITE":"AFETR","DECAY_DATE":null,"FILE":"2895815","GP_ID":"166730926","TLE_LINE0":"0 STARLINK-1561","TLE_LINE1":"1 46056U 20055AF  20336.64349707  .00001439  00000-0  11794-3 0  9999","TLE_LINE2":"2 46056  53.0024 113.9945 0001781  98.1925 261.9265 15.05582292 19044"},{"CCSDS_OMM_VERS":"2.0","COMMENT":"GENERATED VIA SPACE-TRACK.ORG API","CREATION_DATE":"2020-12-02T04:55:40","ORIGINATOR":"18 SPCS","OBJECT_NAME":"STARLINK-1562","OBJECT_ID":"2020-055AG","CENTER_NAME":"EARTH","REF_FRAME":"TEME","TIME_SYSTEM":"UTC","MEAN_ELEMENT_THEORY":"SGP4","EPOCH":"2020-12-01T15:31:25.156416","MEAN_MOTION":"15.05586279","ECCENTRICITY":"0.00018970","INCLINATION":"53.0032","RA_OF_ASC_NODE":"113.9806","ARG_OF_PERICENTER":"98.0671","MEAN_ANOMALY":"262.0532","EPHEMERIS_TYPE":"0","CLASSIFICATION_TYPE":"U","NORAD_CAT_ID":"46057","ELEMENT_SET_NO":"999","REV_AT_EPOCH":"1901","BSTAR":"0.00011551000000","MEAN_MOTION_DOT":"0.00001404","MEAN_MOTION_DDOT":"0.0000000000000","SEMIMAJOR_AXIS":"6927.843","PERIOD":"95.643","APOAPSIS":"551.022","PERIAPSIS":"548.394","OBJECT_TYPE":"PAYLOAD","RCS_SIZE":"LARGE","COUNTRY_CODE":"US","LAUNCH_DATE":"2020-08-07","SITE":"AFETR","DECAY_DATE":null,"FILE":"2895815","GP_ID":"166729241","TLE_LINE0":"0 STARLINK-1562","TLE_LINE1":"1 46057U 20055AG  20336.64681894  .00001404  00000-0  11551-3 0  9999","TLE_LINE2":"2 46057  53.0032 113.9806 0001897  98.0671 262.0532 15.05586279 19010"},{"CCSDS_OMM_VERS":"2.0","COMMENT":"GENERATED VIA SPACE-TRACK.ORG API","CREATION_DATE":"2020-12-01T22:36:10","ORIGINATOR":"18 SPCS","OBJECT_NAME":"STARLINK-1583","OBJECT_ID":"2020-055AP","CENTER_NAME":"EARTH","REF_FRAME":"TEME","TIME_SYSTEM":"UTC","MEAN_ELEMENT_THEORY":"SGP4","EPOCH":"2020-12-01T15:32:53.803680","MEAN_MOTION":"15.05908963","ECCENTRICITY":"0.00026820","INCLINATION":"53.0228","RA_OF_ASC_NODE":"113.9533","ARG_OF_PERICENTER":"46.3113","MEAN_ANOMALY":"313.8097","EPHEMERIS_TYPE":"0","CLASSIFICATION_TYPE":"U","NORAD_CAT_ID":"46064","ELEMENT_SET_NO":"999","REV_AT_EPOCH":"1850","BSTAR":"-0.00509120000000","MEAN_MOTION_DOT":"-0.00074345","MEAN_MOTION_DDOT":"0.0000000000000","SEMIMAJOR_AXIS":"6926.853","PERIOD":"95.623","APOAPSIS":"550.576","PERIAPSIS":"546.861","OBJECT_TYPE":"PAYLOAD","RCS_SIZE":"LARGE","COUNTRY_CODE":"US","LAUNCH_DATE":"2020-08-07","SITE":"AFETR","DECAY_DATE":null,"FILE":"2895747","GP_ID":"166709043","TLE_LINE0":"0 STARLINK-1583","TLE_LINE1":"1 46064U 20055AP  20336.64784495 -.00074345  00000-0 -50912-2 0  9997","TLE_LINE2":"2 46064  53.0228 113.9533 0002682  46.3113 313.8097 15.05908963 18504"},{"CCSDS_OMM_VERS":"2.0","COMMENT":"GENERATED VIA SPACE-TRACK.ORG API","CREATION_DATE":"2020-12-02T04:55:40","ORIGINATOR":"18 SPCS","OBJECT_NAME":"STARLINK-1583","OBJECT_ID":"2020-055AP","CENTER_NAME":"EARTH","REF_FRAME":"TEME","TIME_SYSTEM":"UTC","MEAN_ELEMENT_THEORY":"SGP4","EPOCH":"2020-12-01T15:32:53.803680","MEAN_MOTION":"15.05908963","ECCENTRICITY":"0.00026820","INCLINATION":"53.0228","RA_OF_ASC_NODE":"113.9533","ARG_OF_PERICENTER":"46.3113","MEAN_ANOMALY":"313.8097","EPHEMERIS_TYPE":"0","CLASSIFICATION_TYPE":"U","NORAD_CAT_ID":"46064","ELEMENT_SET_NO":"999","REV_AT_EPOCH":"1903","BSTAR":"-0.00509120000000","MEAN_MOTION_DOT":"-0.00074345","MEAN_MOTION_DDOT":"0.0000000000000","SEMIMAJOR_AXIS":"6926.853","PERIOD":"95.623","APOAPSIS":"550.576","PERIAPSIS":"546.861","OBJECT_TYPE":"PAYLOAD","RCS_SIZE":"LARGE","COUNTRY_CODE":"US","LAUNCH_DATE":"2020-08-07","SITE":"AFETR","DECAY_DATE":null,"FILE":"2895815","GP_ID":"166730927","TLE_LINE0":"0 STARLINK-1583","TLE_LINE1":"1 46064U 20055AP  20336.64784495 -.00074345  00000-0 -50912-2 0  9997","TLE_LINE2":"2 46064  53.0228 113.9533 0002682  46.3113 313.8097 15.05908963 19033"}]